start=new Date('2022-08-26T00:00:00.000Z').valueOf();
sats=[{"BSTAR":"-0.00000791630000","MEAN_MOTION_DOT":"-0.00000399","EPHEMERIS_TYPE":"0","MEAN_MOTION_DDOT":"0.0000000000000","RCS_SIZE":"LARGE","CLASSIFICATION_TYPE":"U","MEAN_ANOMALY":"277.0209","OBJECT_ID":"2021-027AP","PERIOD":"95.592","NORAD_CAT_ID":"48129","OBJECT_NAME":"STARLINK-2471","MEAN_ELEMENT_THEORY":"SGP4","ECCENTRICITY":"0.00013740","APOAPSIS":"548.182","DECAY_DATE":null,"LAUNCH_DATE":"2021-04-07","SITE":"AFETR","PERIAPSIS":"546.279","SEMIMAJOR_AXIS":"6925.366","EPOCH":"2022-08-25T10:17:38.338080","ARG_OF_PERICENTER":"83.0936","MEAN_MOTION":"15.06394433","TIME_SYSTEM":"UTC","CENTER_NAME":"EARTH","ELEMENT_SET_NO":"999","OBJECT_TYPE":"PAYLOAD","COUNTRY_CODE":"US","REV_AT_EPOCH":"7764","TLE_LINE2":"2 48129  53.0540 212.8126 0001374  83.0936 277.0209 15.06394433 77648","GP_ID":"210970285","FILE":"3547226","REF_FRAME":"TEME","INCLINATION":"53.0540","RA_OF_ASC_NODE":"212.8126","TLE_LINE1":"1 48129U 21027AP  22237.42891595 -.00000399  00000-0 -79163-5 0  9999"},{"ELEMENT_SET_NO":"999","COUNTRY_CODE":"US","OBJECT_TYPE":"PAYLOAD","TIME_SYSTEM":"UTC","CENTER_NAME":"EARTH","ARG_OF_PERICENTER":"71.4952","EPOCH":"2022-08-25T10:02:22.071264","MEAN_MOTION":"15.06396618","SEMIMAJOR_AXIS":"6925.359","REF_FRAME":"TEME","INCLINATION":"53.0547","RA_OF_ASC_NODE":"217.8608","TLE_LINE1":"1 48130U 21027AQ  22237.41831101  .00000088  00000-0  24803-4 0  9990","GP_ID":"210977527","FILE":"3547367","REV_AT_EPOCH":"7717","TLE_LINE2":"2 48130  53.0547 217.8608 0001513  71.4952 288.6201 15.06396618 77176","MEAN_ANOMALY":"288.6201","OBJECT_ID":"2021-027AQ","CLASSIFICATION_TYPE":"U","MEAN_MOTION_DDOT":"0.0000000000000","RCS_SIZE":"LARGE","MEAN_MOTION_DOT":"0.00000088","BSTAR":"0.00002480300000","EPHEMERIS_TYPE":"0","LAUNCH_DATE":"2021-04-07","SITE":"AFETR","PERIAPSIS":"546.176","ECCENTRICITY":"0.00015130","APOAPSIS":"548.272","DECAY_DATE":null,"OBJECT_NAME":"STARLINK-2472","MEAN_ELEMENT_THEORY":"SGP4","PERIOD":"95.592","NORAD_CAT_ID":"48130"},{"COUNTRY_CODE":"US","OBJECT_TYPE":"PAYLOAD","ELEMENT_SET_NO":"999","CENTER_NAME":"EARTH","TIME_SYSTEM":"UTC","MEAN_MOTION":"15.06384639","ARG_OF_PERICENTER":"65.7526","EPOCH":"2022-08-25T07:19:50.131776","SEMIMAJOR_AXIS":"6925.396","TLE_LINE1":"1 48131U 21027AR  22237.30544134 -.00000642  00000-0 -24228-4 0  9995","INCLINATION":"53.0543","RA_OF_ASC_NODE":"193.3489","REF_FRAME":"TEME","FILE":"3547226","GP_ID":"210971287","TLE_LINE2":"2 48131  53.0543 193.3489 0001612  65.7526 294.3631 15.06384639 77903","REV_AT_EPOCH":"7790","OBJECT_ID":"2021-027AR","MEAN_ANOMALY":"294.3631","CLASSIFICATION_TYPE":"U","RCS_SIZE":"LARGE","MEAN_MOTION_DDOT":"0.0000000000000","EPHEMERIS_TYPE":"0","BSTAR":"-0.00002422800000","MEAN_MOTION_DOT":"-0.00000642","PERIAPSIS":"546.144","SITE":"AFETR","LAUNCH_DATE":"2021-04-07","DECAY_DATE":null,"ECCENTRICITY":"0.00016120","APOAPSIS":"548.377","MEAN_ELEMENT_THEORY":"SGP4","OBJECT_NAME":"STARLINK-2473","NORAD_CAT_ID":"48131","PERIOD":"95.593"},{"MEAN_MOTION":"15.06396983","ARG_OF_PERICENTER":"64.6673","EPOCH":"2022-08-25T10:01:42.573504","SEMIMAJOR_AXIS":"6925.358","OBJECT_TYPE":"PAYLOAD","COUNTRY_CODE":"US","ELEMENT_SET_NO":"999","CENTER_NAME":"EARTH","TIME_SYSTEM":"UTC","TLE_LINE2":"2 48132  53.0531 212.8630 0001438  64.6673 295.4465 15.06396983 77635","REV_AT_EPOCH":"7763","TLE_LINE1":"1 48132U 21027AS  22237.41785386  .00001100  00000-0  92724-4 0  9998","INCLINATION":"53.0531","RA_OF_ASC_NODE":"212.8630","REF_FRAME":"TEME","FILE":"3547226","GP_ID":"210972037","RCS_SIZE":"LARGE","MEAN_MOTION_DDOT":"0.0000000000000","EPHEMERIS_TYPE":"0","MEAN_MOTION_DOT":"0.00001100","BSTAR":"0.00009272400000","OBJECT_ID":"2021-027AS","MEAN_ANOMALY":"295.4465","CLASSIFICATION_TYPE":"U","MEAN_ELEMENT_THEORY":"SGP4","OBJECT_NAME":"STARLINK-2474","NORAD_CAT_ID":"48132","PERIOD":"95.592","SITE":"AFETR","PERIAPSIS":"546.227","LAUNCH_DATE":"2021-04-07","DECAY_DATE":null,"ECCENTRICITY":"0.00014380","APOAPSIS":"548.219"},{"ARG_OF_PERICENTER":"68.0051","EPOCH":"2022-08-25T08:20:52.188864","MEAN_MOTION":"15.06396523","SEMIMAJOR_AXIS":"6925.359","ELEMENT_SET_NO":"999","OBJECT_TYPE":"PAYLOAD","COUNTRY_CODE":"US","TIME_SYSTEM":"UTC","CENTER_NAME":"EARTH","REV_AT_EPOCH":"7763","TLE_LINE2":"2 48133  53.0530 213.1776 0001655  68.0051 292.1114 15.06396523 77634","REF_FRAME":"TEME","TLE_LINE1":"1 48133U 21027AT  22237.34782626 -.00000303  00000-0 -14460-5 0  9993","INCLINATION":"53.0530","RA_OF_ASC_NODE":"213.1776","FILE":"3547226","GP_ID":"210970785","MEAN_MOTION_DDOT":"0.0000000000000","RCS_SIZE":"LARGE","BSTAR":"-0.00000144600000","MEAN_MOTION_DOT":"-0.00000303","EPHEMERIS_TYPE":"0","OBJECT_ID":"2021-027AT","MEAN_ANOMALY":"292.1114","CLASSIFICATION_TYPE":"U","OBJECT_NAME":"STARLINK-2475","MEAN_ELEMENT_THEORY":"SGP4","PERIOD":"95.592","NORAD_CAT_ID":"48133","LAUNCH_DATE":"2021-04-07","PERIAPSIS":"546.078","SITE":"AFETR","DECAY_DATE":null,"ECCENTRICITY":"0.00016550","APOAPSIS":"548.370"},{"APOAPSIS":"548.273","ECCENTRICITY":"0.00014980","DECAY_DATE":null,"PERIAPSIS":"546.198","SITE":"AFETR","LAUNCH_DATE":"2021-04-07","NORAD_CAT_ID":"48134","PERIOD":"95.593","MEAN_ELEMENT_THEORY":"SGP4","OBJECT_NAME":"STARLINK-2476","CLASSIFICATION_TYPE":"U","MEAN_ANOMALY":"283.1250","OBJECT_ID":"2021-027AU","EPHEMERIS_TYPE":"0","MEAN_MOTION_DOT":"-0.00000706","BSTAR":"-0.00002849500000","RCS_SIZE":"LARGE","MEAN_MOTION_DDOT":"0.0000000000000","GP_ID":"210970536","FILE":"3547226","RA_OF_ASC_NODE":"213.8388","INCLINATION":"53.0546","TLE_LINE1":"1 48134U 21027AU  22237.20039625 -.00000706  00000-0 -28495-4 0  9992","REF_FRAME":"TEME","TLE_LINE2":"2 48134  53.0546 213.8388 0001498  76.9906 283.1250 15.06392740 77605","REV_AT_EPOCH":"7760","CENTER_NAME":"EARTH","TIME_SYSTEM":"UTC","OBJECT_TYPE":"PAYLOAD","COUNTRY_CODE":"US","ELEMENT_SET_NO":"999","SEMIMAJOR_AXIS":"6925.371","MEAN_MOTION":"15.06392740","EPOCH":"2022-08-25T04:48:34.236000","ARG_OF_PERICENTER":"76.9906"},{"FILE":"3547674","GP_ID":"211006280","TLE_LINE1":"1 48135U 21027AV  22237.66622587 -.00000797  00000-0 -34655-4 0  9993","INCLINATION":"53.0542","RA_OF_ASC_NODE":"216.9015","REF_FRAME":"TEME","TLE_LINE2":"2 48135  53.0542 216.9015 0001418  79.2111 280.9038 15.06392802 77607","REV_AT_EPOCH":"7760","CENTER_NAME":"EARTH","TIME_SYSTEM":"UTC","COUNTRY_CODE":"US","OBJECT_TYPE":"PAYLOAD","ELEMENT_SET_NO":"999","SEMIMAJOR_AXIS":"6925.371","MEAN_MOTION":"15.06392802","ARG_OF_PERICENTER":"79.2111","EPOCH":"2022-08-25T15:59:21.915168","DECAY_DATE":null,"ECCENTRICITY":"0.00014180","APOAPSIS":"548.218","SITE":"AFETR","PERIAPSIS":"546.254","LAUNCH_DATE":"2021-04-07","NORAD_CAT_ID":"48135","PERIOD":"95.593","MEAN_ELEMENT_THEORY":"SGP4","OBJECT_NAME":"STARLINK-2478","CLASSIFICATION_TYPE":"U","OBJECT_ID":"2021-027AV","MEAN_ANOMALY":"280.9038","EPHEMERIS_TYPE":"0","BSTAR":"-0.00003465500000","MEAN_MOTION_DOT":"-0.00000797","RCS_SIZE":"LARGE","MEAN_MOTION_DDOT":"0.0000000000000"},{"CLASSIFICATION_TYPE":"U","MEAN_ANOMALY":"292.9530","OBJECT_ID":"2021-027AW","EPHEMERIS_TYPE":"0","BSTAR":"-0.00002134100000","MEAN_MOTION_DOT":"-0.00000599","RCS_SIZE":"LARGE","MEAN_MOTION_DDOT":"0.0000000000000","ECCENTRICITY":"0.00017260","APOAPSIS":"548.415","DECAY_DATE":null,"PERIAPSIS":"546.024","SITE":"AFETR","LAUNCH_DATE":"2021-04-07","NORAD_CAT_ID":"48136","PERIOD":"95.592","MEAN_ELEMENT_THEORY":"SGP4","OBJECT_NAME":"STARLINK-2479","CENTER_NAME":"EARTH","TIME_SYSTEM":"UTC","COUNTRY_CODE":"US","OBJECT_TYPE":"PAYLOAD","ELEMENT_SET_NO":"999","SEMIMAJOR_AXIS":"6925.355","MEAN_MOTION":"15.06398054","ARG_OF_PERICENTER":"67.1641","EPOCH":"2022-08-25T14:57:35.301600","GP_ID":"211005542","FILE":"3547674","INCLINATION":"53.0545","RA_OF_ASC_NODE":"211.9207","TLE_LINE1":"1 48136U 21027AW  22237.62332525 -.00000599  00000-0 -21341-4 0  9998","REF_FRAME":"TEME","TLE_LINE2":"2 48136  53.0545 211.9207 0001726  67.1641 292.9530 15.06398054 77677","REV_AT_EPOCH":"7767"},{"TLE_LINE1":"1 48137U 21027AX  22237.58188338 -.00000491  00000-0 -14099-4 0  9998","RA_OF_ASC_NODE":"192.0942","INCLINATION":"53.0533","REF_FRAME":"TEME","FILE":"3547674","GP_ID":"211005289","TLE_LINE2":"2 48137  53.0533 192.0942 0001544  69.5940 290.5214 15.06383842 77948","REV_AT_EPOCH":"7794","OBJECT_TYPE":"PAYLOAD","COUNTRY_CODE":"US","ELEMENT_SET_NO":"999","CENTER_NAME":"EARTH","TIME_SYSTEM":"UTC","MEAN_MOTION":"15.06383842","EPOCH":"2022-08-25T13:57:54.724032","ARG_OF_PERICENTER":"69.5940","SEMIMAJOR_AXIS":"6925.398","PERIAPSIS":"546.194","SITE":"AFETR","LAUNCH_DATE":"2021-04-07","DECAY_DATE":null,"ECCENTRICITY":"0.00015440","APOAPSIS":"548.332","MEAN_ELEMENT_THEORY":"SGP4","OBJECT_NAME":"STARLINK-2480","NORAD_CAT_ID":"48137","PERIOD":"95.593","OBJECT_ID":"2021-027AX","MEAN_ANOMALY":"290.5214","CLASSIFICATION_TYPE":"U","RCS_SIZE":"LARGE","MEAN_MOTION_DDOT":"0.0000000000000","EPHEMERIS_TYPE":"0","MEAN_MOTION_DOT":"-0.00000491","BSTAR":"-0.00001409900000"},{"COUNTRY_CODE":"US","OBJECT_TYPE":"PAYLOAD","ELEMENT_SET_NO":"999","CENTER_NAME":"EARTH","TIME_SYSTEM":"UTC","MEAN_MOTION":"15.06393761","EPOCH":"2022-08-25T09:51:06.391296","ARG_OF_PERICENTER":"62.5316","SEMIMAJOR_AXIS":"6925.368","TLE_LINE1":"1 48138U 21027AY  22237.41049064  .00001074  00000-0  91021-4 0  9999","RA_OF_ASC_NODE":"212.8983","INCLINATION":"53.0528","REF_FRAME":"TEME","FILE":"3547226","GP_ID":"210971036","TLE_LINE2":"2 48138  53.0528 212.8983 0001727  62.5316 297.5849 15.06393761 77641","REV_AT_EPOCH":"7764","OBJECT_ID":"2021-027AY","MEAN_ANOMALY":"297.5849","CLASSIFICATION_TYPE":"U","RCS_SIZE":"LARGE","MEAN_MOTION_DDOT":"0.0000000000000","EPHEMERIS_TYPE":"0","BSTAR":"0.00009102100000","MEAN_MOTION_DOT":"0.00001074","SITE":"AFETR","PERIAPSIS":"546.037","LAUNCH_DATE":"2021-04-07","DECAY_DATE":null,"ECCENTRICITY":"0.00017270","APOAPSIS":"548.429","MEAN_ELEMENT_THEORY":"SGP4","OBJECT_NAME":"STARLINK-2481","NORAD_CAT_ID":"48138","PERIOD":"95.593"}];
